ONEWEB-0300             
1 49089U 21075Q   25242.18293845 -.00000375  00000+0 -10781-2 0  9995
2 49089  87.8872  48.4765 0001926  83.6332 276.5016 13.12442207197032
ONEWEB-0301             
1 49090U 21075R   25242.16672298  .00000036  00000+0  63829-4 0  9993
2 49090  87.8868  48.4844 0001965  81.0152 279.1199 13.12441668196391
ONEWEB-0302             
1 49091U 21075S   25242.22998180  .00001080  00000+0  29656-2 0  9990
2 49091  87.8879  48.4775 0001516 102.3435 257.7863 13.12448844196382
ONEWEB-0304             
1 49092U 21075T   25242.25687149  .00000041  00000+0  72190-4 0  9993
2 49092  87.9031  63.7435 0001789  94.4924 265.6412 13.17648277195264
ONEWEB-0305             
1 49093U 21075U   25242.25012572  .00000071  00000+0  15003-3 0  9998
2 49093  87.9037  63.7212 0002006 100.6208 259.5149 13.17650632195292
ONEWEB-0308             
1 49094U 21075V   25242.22350259  .00000452  00000+0  12205-2 0  9996
2 49094  87.8876  48.4705 0001704  91.3125 268.8198 13.12441689196392
ONEWEB-0309             
1 49095U 21075W   25242.25348434  .00000065  00000+0  13348-3 0  9992
2 49095  87.9033  63.7380 0001383 100.8525 259.2762 13.17650719195268
ONEWEB-0310             
1 49096U 21075X   25242.16185595  .00000176  00000+0  45327-3 0  9995
2 49096  87.8873  48.5284 0001611  94.6302 265.5011 13.12441539197016
ONEWEB-0311             
1 49097U 21075Y   25242.26024214  .00000069  00000+0  14444-3 0  9994
2 49097  87.9024  63.7353 0002020  95.7883 264.3479 13.17647674195312
ONEWEB-0312             
1 49098U 21075Z   25242.19949055  .00000068  00000+0  14267-3 0  9998
2 49098  87.9028  63.7793 0001716 101.7468 258.3857 13.17648305195284
ONEWEB-0313             
1 49099U 21075AA  25242.20443043  .00000032  00000+0  48638-4 0  9998
2 49099  87.9020  63.7907 0001764  92.9674 267.1659 13.17649462195279
ONEWEB-0314             
1 49100U 21075AB  25242.24674188  .00000104  00000+0  23543-3 0  9998
2 49100  87.9037  63.7185 0001801 102.1399 257.9934 13.17647824195259
ONEWEB-0315             
1 49101U 21075AC  25242.21213871  .00000362  00000+0  97012-3 0  9992
2 49101  87.8871  48.4637 0002097  94.9933 265.1435 13.12442908197000
ONEWEB-0316             
1 49102U 21075AD  25242.17247117  .00000103  00000+0  22872-3 0  9993
2 49102  87.9164  33.2586 0001961  94.5576 265.5780 13.18688427198855
ONEWEB-0317             
1 49103U 21075AE  25242.20565471  .00000098  00000+0  23709-3 0  9997
2 49103  87.8878  48.4792 0000884  90.8982 269.2248 13.12444350197024
ONEWEB-0318             
1 49104U 21075AF  25242.16918734  .00000037  00000+0  60580-4 0  9999
2 49104  87.9164  33.2455 0001968  97.2218 262.9138 13.18685106198817
ONEWEB-0319             
1 49105U 21075AG  25242.03412608  .00000090  00000+0  19977-3 0  9997
2 49105  87.9027  63.8057 0002047  97.4192 262.7173 13.17647629195265
