[{"OBJECT_NAME":"ONEWEB-0300","OBJECT_ID":"2021-075Q","EPOCH":"2025-08-30T04:23:25.882080","MEAN_MOTION":13.12442207,"ECCENTRICITY":0.00019269,"INCLINATION":87.8872,"RA_OF_ASC_NODE":48.4765,"ARG_OF_PERICENTER":83.6332,"MEAN_ANOMALY":276.5016,"EPHEMERIS_TYPE":0,"CLASSIFICATION_TYPE":"U","NORAD_CAT_ID":49089,"ELEMENT_SET_NO":999,"REV_AT_EPOCH":19703,"BSTAR":-0.0010780553,"MEAN_MOTION_DOT":-3.75e-6,"MEAN_MOTION_DDOT":0},{"OBJECT_NAME":"ONEWEB-0301","OBJECT_ID":"2021-075R","EPOCH":"2025-08-30T04:00:04.865472","MEAN_MOTION":13.12441668,"ECCENTRICITY":0.00019651,"INCLINATION":87.8868,"RA_OF_ASC_NODE":48.4844,"ARG_OF_PERICENTER":81.0152,"MEAN_ANOMALY":279.1199,"EPHEMERIS_TYPE":0,"CLASSIFICATION_TYPE":"U","NORAD_CAT_ID":49090,"ELEMENT_SET_NO":999,"REV_AT_EPOCH":19639,"BSTAR":6.3828671e-5,"MEAN_MOTION_DOT":3.6e-7,"MEAN_MOTION_DDOT":0},{"OBJECT_NAME":"ONEWEB-0302","OBJECT_ID":"2021-075S","EPOCH":"2025-08-30T05:31:10.427520","MEAN_MOTION":13.12448844,"ECCENTRICITY":0.00015161,"INCLINATION":87.8879,"RA_OF_ASC_NODE":48.4775,"ARG_OF_PERICENTER":102.3435,"MEAN_ANOMALY":257.7863,"EPHEMERIS_TYPE":0,"CLASSIFICATION_TYPE":"U","NORAD_CAT_ID":49091,"ELEMENT_SET_NO":999,"REV_AT_EPOCH":19638,"BSTAR":0.0029656049,"MEAN_MOTION_DOT":1.08e-5,"MEAN_MOTION_DDOT":0},{"OBJECT_NAME":"ONEWEB-0304","OBJECT_ID":"2021-075T","EPOCH":"2025-08-30T06:09:53.696736","MEAN_MOTION":13.17648277,"ECCENTRICITY":0.00017898,"INCLINATION":87.9031,"RA_OF_ASC_NODE":63.7435,"ARG_OF_PERICENTER":94.4924,"MEAN_ANOMALY":265.6412,"EPHEMERIS_TYPE":0,"CLASSIFICATION_TYPE":"U","NORAD_CAT_ID":49092,"ELEMENT_SET_NO":999,"REV_AT_EPOCH":19526,"BSTAR":7.2189901e-5,"MEAN_MOTION_DOT":4.1e-7,"MEAN_MOTION_DDOT":0},{"OBJECT_NAME":"ONEWEB-0305","OBJECT_ID":"2021-075U","EPOCH":"2025-08-30T06:00:10.862208","MEAN_MOTION":13.17650632,"ECCENTRICITY":0.00020063,"INCLINATION":87.9037,"RA_OF_ASC_NODE":63.7212,"ARG_OF_PERICENTER":100.6208,"MEAN_ANOMALY":259.5149,"EPHEMERIS_TYPE":0,"CLASSIFICATION_TYPE":"U","NORAD_CAT_ID":49093,"ELEMENT_SET_NO":999,"REV_AT_EPOCH":19529,"BSTAR":0.000150027,"MEAN_MOTION_DOT":7.1e-7,"MEAN_MOTION_DDOT":0},{"OBJECT_NAME":"ONEWEB-0308","OBJECT_ID":"2021-075V","EPOCH":"2025-08-30T05:21:50.623776","MEAN_MOTION":13.12441689,"ECCENTRICITY":0.00017049,"INCLINATION":87.8876,"RA_OF_ASC_NODE":48.4705,"ARG_OF_PERICENTER":91.3125,"MEAN_ANOMALY":268.8198,"EPHEMERIS_TYPE":0,"CLASSIFICATION_TYPE":"U","NORAD_CAT_ID":49094,"ELEMENT_SET_NO":999,"REV_AT_EPOCH":19639,"BSTAR":0.00122053,"MEAN_MOTION_DOT":4.52e-6,"MEAN_MOTION_DDOT":0},{"OBJECT_NAME":"ONEWEB-0309","OBJECT_ID":"2021-075W","EPOCH":"2025-08-30T06:05:01.046976","MEAN_MOTION":13.17650719,"ECCENTRICITY":0.00013838,"INCLINATION":87.9033,"RA_OF_ASC_NODE":63.738,"ARG_OF_PERICENTER":100.8525,"MEAN_ANOMALY":259.2762,"EPHEMERIS_TYPE":0,"CLASSIFICATION_TYPE":"U","NORAD_CAT_ID":49095,"ELEMENT_SET_NO":999,"REV_AT_EPOCH":19526,"BSTAR":0.00013347578,"MEAN_MOTION_DOT":6.5e-7,"MEAN_MOTION_DDOT":0},{"OBJECT_NAME":"ONEWEB-0310","OBJECT_ID":"2021-075X","EPOCH":"2025-08-30T03:53:04.354080","MEAN_MOTION":13.12441539,"ECCENTRICITY":0.0001611,"INCLINATION":87.8873,"RA_OF_ASC_NODE":48.5284,"ARG_OF_PERICENTER":94.6302,"MEAN_ANOMALY":265.5011,"EPHEMERIS_TYPE":0,"CLASSIFICATION_TYPE":"U","NORAD_CAT_ID":49096,"ELEMENT_SET_NO":999,"REV_AT_EPOCH":19701,"BSTAR":0.00045326869,"MEAN_MOTION_DOT":1.76e-6,"MEAN_MOTION_DDOT":0},{"OBJECT_NAME":"ONEWEB-0311","OBJECT_ID":"2021-075Y","EPOCH":"2025-08-30T06:14:44.920896","MEAN_MOTION":13.17647674,"ECCENTRICITY":0.00020205,"INCLINATION":87.9024,"RA_OF_ASC_NODE":63.7353,"ARG_OF_PERICENTER":95.7883,"MEAN_ANOMALY":264.3479,"EPHEMERIS_TYPE":0,"CLASSIFICATION_TYPE":"U","NORAD_CAT_ID":49097,"ELEMENT_SET_NO":999,"REV_AT_EPOCH":19531,"BSTAR":0.0001444439,"MEAN_MOTION_DOT":6.9e-7,"MEAN_MOTION_DDOT":0},{"OBJECT_NAME":"ONEWEB-0312","OBJECT_ID":"2021-075Z","EPOCH":"2025-08-30T04:47:15.983520","MEAN_MOTION":13.17648305,"ECCENTRICITY":0.00017168,"INCLINATION":87.9028,"RA_OF_ASC_NODE":63.7793,"ARG_OF_PERICENTER":101.7468,"MEAN_ANOMALY":258.3857,"EPHEMERIS_TYPE":0,"CLASSIFICATION_TYPE":"U","NORAD_CAT_ID":49098,"ELEMENT_SET_NO":999,"REV_AT_EPOCH":19528,"BSTAR":0.00014266731,"MEAN_MOTION_DOT":6.8e-7,"MEAN_MOTION_DDOT":0},{"OBJECT_NAME":"ONEWEB-0313","OBJECT_ID":"2021-075AA","EPOCH":"2025-08-30T04:54:22.789152","MEAN_MOTION":13.17649462,"ECCENTRICITY":0.00017648,"INCLINATION":87.902,"RA_OF_ASC_NODE":63.7907,"ARG_OF_PERICENTER":92.9674,"MEAN_ANOMALY":267.1659,"EPHEMERIS_TYPE":0,"CLASSIFICATION_TYPE":"U","NORAD_CAT_ID":49099,"ELEMENT_SET_NO":999,"REV_AT_EPOCH":19527,"BSTAR":4.8638023e-5,"MEAN_MOTION_DOT":3.2e-7,"MEAN_MOTION_DDOT":0},{"OBJECT_NAME":"ONEWEB-0314","OBJECT_ID":"2021-075AB","EPOCH":"2025-08-30T05:55:18.498432","MEAN_MOTION":13.17647824,"ECCENTRICITY":0.00018017,"INCLINATION":87.9037,"RA_OF_ASC_NODE":63.7185,"ARG_OF_PERICENTER":102.1399,"MEAN_ANOMALY":257.9934,"EPHEMERIS_TYPE":0,"CLASSIFICATION_TYPE":"U","NORAD_CAT_ID":49100,"ELEMENT_SET_NO":999,"REV_AT_EPOCH":19525,"BSTAR":0.00023543257,"MEAN_MOTION_DOT":1.04e-6,"MEAN_MOTION_DDOT":0},{"OBJECT_NAME":"ONEWEB-0315","OBJECT_ID":"2021-075AC","EPOCH":"2025-08-30T05:05:28.784544","MEAN_MOTION":13.12442908,"ECCENTRICITY":0.0002097,"INCLINATION":87.8871,"RA_OF_ASC_NODE":48.4637,"ARG_OF_PERICENTER":94.9933,"MEAN_ANOMALY":265.1435,"EPHEMERIS_TYPE":0,"CLASSIFICATION_TYPE":"U","NORAD_CAT_ID":49101,"ELEMENT_SET_NO":999,"REV_AT_EPOCH":19700,"BSTAR":0.00097012477,"MEAN_MOTION_DOT":3.62e-6,"MEAN_MOTION_DDOT":0},{"OBJECT_NAME":"ONEWEB-0316","OBJECT_ID":"2021-075AD","EPOCH":"2025-08-30T04:08:21.509088","MEAN_MOTION":13.18688427,"ECCENTRICITY":0.00019613,"INCLINATION":87.9164,"RA_OF_ASC_NODE":33.2586,"ARG_OF_PERICENTER":94.5576,"MEAN_ANOMALY":265.578,"EPHEMERIS_TYPE":0,"CLASSIFICATION_TYPE":"U","NORAD_CAT_ID":49102,"ELEMENT_SET_NO":999,"REV_AT_EPOCH":19885,"BSTAR":0.00022871663,"MEAN_MOTION_DOT":1.03e-6,"MEAN_MOTION_DDOT":0},{"OBJECT_NAME":"ONEWEB-0317","OBJECT_ID":"2021-075AE","EPOCH":"2025-08-30T04:56:08.566944","MEAN_MOTION":13.1244435,"ECCENTRICITY":8.843e-5,"INCLINATION":87.8878,"RA_OF_ASC_NODE":48.4792,"ARG_OF_PERICENTER":90.8982,"MEAN_ANOMALY":269.2248,"EPHEMERIS_TYPE":0,"CLASSIFICATION_TYPE":"U","NORAD_CAT_ID":49103,"ELEMENT_SET_NO":999,"REV_AT_EPOCH":19702,"BSTAR":0.00023709327,"MEAN_MOTION_DOT":9.8e-7,"MEAN_MOTION_DDOT":0},{"OBJECT_NAME":"ONEWEB-0318","OBJECT_ID":"2021-075AF","EPOCH":"2025-08-30T04:03:37.786176","MEAN_MOTION":13.18685106,"ECCENTRICITY":0.00019687,"INCLINATION":87.9164,"RA_OF_ASC_NODE":33.2455,"ARG_OF_PERICENTER":97.2218,"MEAN_ANOMALY":262.9138,"EPHEMERIS_TYPE":0,"CLASSIFICATION_TYPE":"U","NORAD_CAT_ID":49104,"ELEMENT_SET_NO":999,"REV_AT_EPOCH":19881,"BSTAR":6.0580134e-5,"MEAN_MOTION_DOT":3.7e-7,"MEAN_MOTION_DDOT":0},{"OBJECT_NAME":"ONEWEB-0319","OBJECT_ID":"2021-075AG","EPOCH":"2025-08-30T00:49:08.493312","MEAN_MOTION":13.17647629,"ECCENTRICITY":0.00020473,"INCLINATION":87.9027,"RA_OF_ASC_NODE":63.8057,"ARG_OF_PERICENTER":97.4192,"MEAN_ANOMALY":262.7173,"EPHEMERIS_TYPE":0,"CLASSIFICATION_TYPE":"U","NORAD_CAT_ID":49105,"ELEMENT_SET_NO":999,"REV_AT_EPOCH":19526,"BSTAR":0.00019977426,"MEAN_MOTION_DOT":9.0e-7,"MEAN_MOTION_DDOT":0}]
